{
  "type": "FeatureCollection",
  "features": [
    {
      "type": "Feature",
      "properties": {
        "norad_id": 34420,
        "name": "COSMOS 2251 DEB",
        "group": "cosmos-2251-debris",
        "lat": 17.814095193165986,
        "lon": 122.68631910301852,
        "alt_km": 722.77161799435,
        "timestamp": "2025-12-05T18:53:13.675973+00:00",
        "meta_object_name": "COSMOS 2251 DEB",
        "meta_object_id": "1993-036RM",
        "meta_epoch": "2025-12-05T04:20:24.580320",
        "meta_mean_motion": 14.68261008,
        "meta_eccentricity": 0.01069116,
        "meta_inclination": 74.0331,
        "meta_ra_of_asc_node": 118.5794,
        "meta_arg_of_pericenter": 241.4557,
        "meta_mean_anomaly": 173.9014,
        "meta_ephemeris_type": 0,
        "meta_classification_type": "U",
        "meta_norad_cat_id": 34420,
        "meta_element_set_no": 999,
        "meta_rev_at_epoch": 89659,
        "meta_bstar": 0.00046288027,
        "meta_mean_motion_dot": 2.875e-05,
        "meta_mean_motion_ddot": 0,
        "tle_line1": "1 34420U 93036RM  25339.18084005  .00002875  00000+0  46288-3 0  9994",
        "tle_line2": "2 34420  74.0331 118.5794 0106911 241.4557 173.9014 14.68261008896592"
      },
      "geometry": {
        "type": "Point",
        "coordinates": [
          122.68631910301852,
          17.814095193165986
        ]
      }
    },
    {
      "type": "Feature",
      "properties": {
        "norad_id": 34425,
        "name": "COSMOS 2251 DEB",
        "group": "cosmos-2251-debris",
        "lat": -71.27488313549749,
        "lon": -54.45058791363684,
        "alt_km": 685.613963047289,
        "timestamp": "2025-12-05T18:53:13.675983+00:00",
        "meta_object_name": "COSMOS 2251 DEB",
        "meta_object_id": "1993-036RS",
        "meta_epoch": "2025-12-05T06:12:23.798592",
        "meta_mean_motion": 14.62057136,
        "meta_eccentricity": 0.00253699,
        "meta_inclination": 74.0209,
        "meta_ra_of_asc_node": 68.8545,
        "meta_arg_of_pericenter": 197.0571,
        "meta_mean_anomaly": 162.9746,
        "meta_ephemeris_type": 0,
        "meta_classification_type": "U",
        "meta_norad_cat_id": 34425,
        "meta_element_set_no": 999,
        "meta_rev_at_epoch": 88631,
        "meta_bstar": 0.0012799923,
        "meta_mean_motion_dot": 6.431e-05,
        "meta_mean_motion_ddot": 0,
        "tle_line1": "1 34425U 93036RS  25339.25860878  .00006431  00000+0  12800-2 0  9991",
        "tle_line2": "2 34425  74.0209  68.8545 0025369 197.0571 162.9746 14.62057136886319"
      },
      "geometry": {
        "type": "Point",
        "coordinates": [
          -54.45058791363684,
          -71.27488313549749
        ]
      }
    },
    {
      "type": "Feature",
      "properties": {
        "norad_id": 34429,
        "name": "COSMOS 2251 DEB",
        "group": "cosmos-2251-debris",
        "lat": 6.096954092271029,
        "lon": 1.3327574976407357,
        "alt_km": 456.37863002223276,
        "timestamp": "2025-12-05T18:53:13.675994+00:00",
        "meta_object_name": "COSMOS 2251 DEB",
        "meta_object_id": "1993-036RW",
        "meta_epoch": "2025-12-04T23:55:25.095072",
        "meta_mean_motion": 15.37797754,
        "meta_eccentricity": 0.00055375,
        "meta_inclination": 73.9716,
        "meta_ra_of_asc_node": 184.8007,
        "meta_arg_of_pericenter": 31.6479,
        "meta_mean_anomaly": 88.8662,
        "meta_ephemeris_type": 0,
        "meta_classification_type": "U",
        "meta_norad_cat_id": 34429,
        "meta_element_set_no": 999,
        "meta_rev_at_epoch": 89329,
        "meta_bstar": 0.0071490757,
        "meta_mean_motion_dot": 0.00275543,
        "meta_mean_motion_ddot": 0,
        "tle_line1": "1 34429U 93036RW  25338.99681823  .00275543  00000+0  71491-2 0  9999",
        "tle_line2": "2 34429  73.9716 184.8007 0005537  31.6479  88.8662 15.37797754893299"
      },
      "geometry": {
        "type": "Point",
        "coordinates": [
          1.3327574976407357,
          6.096954092271029
        ]
      }
    },
    {
      "type": "Feature",
      "properties": {
        "norad_id": 34430,
        "name": "COSMOS 2251 DEB",
        "group": "cosmos-2251-debris",
        "lat": -59.140250755380116,
        "lon": 164.78366059287393,
        "alt_km": 801.3359801962715,
        "timestamp": "2025-12-05T18:53:13.676004+00:00",
        "meta_object_name": "COSMOS 2251 DEB",
        "meta_object_id": "1993-036RX",
        "meta_epoch": "2025-12-05T01:04:57.683712",
        "meta_mean_motion": 14.39594358,
        "meta_eccentricity": 0.00599799,
        "meta_inclination": 74.051,
        "meta_ra_of_asc_node": 317.5591,
        "meta_arg_of_pericenter": 29.153,
        "meta_mean_anomaly": 331.295,
        "meta_ephemeris_type": 0,
        "meta_classification_type": "U",
        "meta_norad_cat_id": 34430,
        "meta_element_set_no": 999,
        "meta_rev_at_epoch": 87844,
        "meta_bstar": 0.00085911842,
        "meta_mean_motion_dot": 2.716e-05,
        "meta_mean_motion_ddot": 0,
        "tle_line1": "1 34430U 93036RX  25339.04511208  .00002716  00000+0  85912-3 0  9991",
        "tle_line2": "2 34430  74.0510 317.5591 0059979  29.1530 331.2950 14.39594358878448"
      },
      "geometry": {
        "type": "Point",
        "coordinates": [
          164.78366059287393,
          -59.140250755380116
        ]
      }
    },
    {
      "type": "Feature",
      "properties": {
        "norad_id": 34431,
        "name": "COSMOS 2251 DEB",
        "group": "cosmos-2251-debris",
        "lat": 53.00820769408403,
        "lon": -149.94276568843608,
        "alt_km": 814.3431805391083,
        "timestamp": "2025-12-05T18:53:13.676014+00:00",
        "meta_object_name": "COSMOS 2251 DEB",
        "meta_object_id": "1993-036RY",
        "meta_epoch": "2025-12-05T00:08:13.166880",
        "meta_mean_motion": 14.28738906,
        "meta_eccentricity": 0.00686526,
        "meta_inclination": 74.0744,
        "meta_ra_of_asc_node": 189.1981,
        "meta_arg_of_pericenter": 176.979,
        "meta_mean_anomaly": 183.1789,
        "meta_ephemeris_type": 0,
        "meta_classification_type": "U",
        "meta_norad_cat_id": 34431,
        "meta_element_set_no": 999,
        "meta_rev_at_epoch": 87032,
        "meta_bstar": 0.00098030087,
        "meta_mean_motion_dot": 2.506e-05,
        "meta_mean_motion_ddot": 0,
        "tle_line1": "1 34431U 93036RY  25339.00570795  .00002506  00000+0  98030-3 0  9996",
        "tle_line2": "2 34431  74.0744 189.1981 0068652 176.9790 183.1789 14.28738906870321"
      },
      "geometry": {
        "type": "Point",
        "coordinates": [
          -149.94276568843608,
          53.00820769408403
        ]
      }
    },
    {
      "type": "Feature",
      "properties": {
        "norad_id": 34432,
        "name": "COSMOS 2251 DEB",
        "group": "cosmos-2251-debris",
        "lat": -9.108045500950812,
        "lon": 111.90746616953949,
        "alt_km": 1004.8114039566717,
        "timestamp": "2025-12-05T18:53:13.676024+00:00",
        "meta_object_name": "COSMOS 2251 DEB",
        "meta_object_id": "1993-036RZ",
        "meta_epoch": "2025-12-04T19:33:44.459424",
        "meta_mean_motion": 14.02852519,
        "meta_eccentricity": 0.01830948,
        "meta_inclination": 73.8279,
        "meta_ra_of_asc_node": 116.2854,
        "meta_arg_of_pericenter": 200.1763,
        "meta_mean_anomaly": 283.1494,
        "meta_ephemeris_type": 0,
        "meta_classification_type": "U",
        "meta_norad_cat_id": 34432,
        "meta_element_set_no": 999,
        "meta_rev_at_epoch": 85573,
        "meta_bstar": 0.0023683245,
        "meta_mean_motion_dot": 4.228e-05,
        "meta_mean_motion_ddot": 0,
        "tle_line1": "1 34432U 93036RZ  25338.81509791  .00004228  00000+0  23683-2 0  9997",
        "tle_line2": "2 34432  73.8279 116.2854 0183094 200.1763 283.1494 14.02852519855731"
      },
      "geometry": {
        "type": "Point",
        "coordinates": [
          111.90746616953949,
          -9.108045500950812
        ]
      }
    },
    {
      "type": "Feature",
      "properties": {
        "norad_id": 34433,
        "name": "COSMOS 2251 DEB",
        "group": "cosmos-2251-debris",
        "lat": 51.610375788474414,
        "lon": -33.96277783740359,
        "alt_km": 954.3245852263108,
        "timestamp": "2025-12-05T18:53:13.676034+00:00",
        "meta_object_name": "COSMOS 2251 DEB",
        "meta_object_id": "1993-036SA",
        "meta_epoch": "2025-12-04T23:35:46.875552",
        "meta_mean_motion": 14.12799943,
        "meta_eccentricity": 0.01518124,
        "meta_inclination": 74.011,
        "meta_ra_of_asc_node": 168.676,
        "meta_arg_of_pericenter": 308.4632,
        "meta_mean_anomaly": 50.2965,
        "meta_ephemeris_type": 0,
        "meta_classification_type": "U",
        "meta_norad_cat_id": 34433,
        "meta_element_set_no": 999,
        "meta_rev_at_epoch": 85840,
        "meta_bstar": 0.0024661945,
        "meta_mean_motion_dot": 5.088e-05,
        "meta_mean_motion_ddot": 0,
        "tle_line1": "1 34433U 93036SA  25338.98318143  .00005088  00000+0  24662-2 0  9998",
        "tle_line2": "2 34433  74.0110 168.6760 0151812 308.4632  50.2965 14.12799943858401"
      },
      "geometry": {
        "type": "Point",
        "coordinates": [
          -33.96277783740359,
          51.610375788474414
        ]
      }
    }
  ]
}